SHIJIAN-16 (SJ-16)      
1 39358U 13057A   25325.94877589  .00001990  00000+0  19914-3 0  9993
2 39358  74.9746  28.9909 0016823   9.5318 350.6185 14.91897205655437
SL-4 R/B                
1 39679U 14021B   25325.86505887  .00013616  00000+0  33075-3 0  9993
2 39679  51.6048 141.9858 0103403  71.1582 290.0581 15.35925969639682
ALOS-2                  
1 39766U 14029A   25325.91211903 -.00000562  00000+0 -68406-4 0  9992
2 39766  97.9233  61.0539 0001366  95.0818 265.0549 14.79475858620936
YAOGAN-29               
1 41038U 15069A   25325.96889068  .00000510  00000+0  69745-4 0  9998
2 41038  98.0239 349.0720 0001601  31.8720 328.2590 14.82849249539910
ASTRO-H (HITOMI)        
1 41337U 16012A   25325.26217883  .00003549  00000+0  21219-3 0  9990
2 41337  31.0013 335.8101 0009770 320.7682  39.2247 15.09162307535835
HXMT (HUIYAN)           
1 42758U 17034A   25325.90623473  .00007373  00000+0  38370-3 0  9995
2 42758  43.0148 255.2156 0034138 273.3758  86.3185 15.15963479466173
CZ-2C R/B               
1 43521U 18054D   25325.07297686  .00078922  00000+0  63719-3 0  9991
2 43521  35.1364 327.2752 0022513 287.1809  72.6458 15.69281838411644
SAOCOM 1A               
1 43641U 18076A   25325.94614418  .00000519  00000+0  71755-4 0  9997
2 43641  97.8852 150.6704 0001571  91.3350 268.8043 14.82143905385405
H-2A R/B                
1 43682U 18084L   25325.46679041  .00019708  00000+0  55049-3 0  9998
2 43682  98.8785 155.1550 0028871  38.8508 321.4799 15.36353375389130
SAOCOM 1B               
1 46265U 20059A   25325.90991382  .00000529  00000+0  72980-4 0  9992
2 46265  97.8847 149.7363 0001331  89.9185 270.2181 14.82152512282788
CSS (TIANHE)            
1 48274U 21035A   25325.82671522  .00020740  00000+0  25818-3 0  9995
2 48274  41.4654 143.5767 0007674 213.1199 146.9160 15.59409922260768
COSMOS 2550             
1 48865U 21056A   25325.92476580  .00000019  00000+0  63955-5 0  9995
2 48865  67.1437   6.8952 0007975 266.2089  93.8154 15.33863032246930
