CCSDS_OMM_VERS = 2.0
CREATION_DATE  = 
ORIGINATOR     = 

OBJECT_NAME    = SHIJIAN-16 (SJ-16)
OBJECT_ID      = 2013-057A
CENTER_NAME    = EARTH
REF_FRAME      = TEME
TIME_SYSTEM    = UTC
MEAN_ELEMENT_THEORY = SGP/SGP4

EPOCH          = 2025-11-21T22:46:14.236896
MEAN_MOTION    = 14.91897205
ECCENTRICITY   = .0016823
INCLINATION    = 74.9746
RA_OF_ASC_NODE = 28.9909
ARG_OF_PERICENTER = 9.5318
MEAN_ANOMALY   = 350.6185

EPHEMERIS_TYPE = 0
CLASSIFICATION_TYPE = U
NORAD_CAT_ID   = 39358
ELEMENT_SET_NO = 999
REV_AT_EPOCH   = 65543
BSTAR          = .19914E-3
MEAN_MOTION_DOT = .199E-4
MEAN_MOTION_DDOT = 0

CCSDS_OMM_VERS = 2.0
CREATION_DATE  = 
ORIGINATOR     = 

OBJECT_NAME    = SL-4 R/B
OBJECT_ID      = 2014-021B
CENTER_NAME    = EARTH
REF_FRAME      = TEME
TIME_SYSTEM    = UTC
MEAN_ELEMENT_THEORY = SGP/SGP4

EPOCH          = 2025-11-21T20:45:41.086368
MEAN_MOTION    = 15.35925969
ECCENTRICITY   = .0103403
INCLINATION    = 51.6048
RA_OF_ASC_NODE = 141.9858
ARG_OF_PERICENTER = 71.1582
MEAN_ANOMALY   = 290.0581

EPHEMERIS_TYPE = 0
CLASSIFICATION_TYPE = U
NORAD_CAT_ID   = 39679
ELEMENT_SET_NO = 999
REV_AT_EPOCH   = 63968
BSTAR          = .33075E-3
MEAN_MOTION_DOT = .13616E-3
MEAN_MOTION_DDOT = 0

CCSDS_OMM_VERS = 2.0
CREATION_DATE  = 
ORIGINATOR     = 

OBJECT_NAME    = ALOS-2
OBJECT_ID      = 2014-029A
CENTER_NAME    = EARTH
REF_FRAME      = TEME
TIME_SYSTEM    = UTC
MEAN_ELEMENT_THEORY = SGP/SGP4

EPOCH          = 2025-11-21T21:53:27.084192
MEAN_MOTION    = 14.79475858
ECCENTRICITY   = .0001366
INCLINATION    = 97.9233
RA_OF_ASC_NODE = 61.0539
ARG_OF_PERICENTER = 95.0818
MEAN_ANOMALY   = 265.0549

EPHEMERIS_TYPE = 0
CLASSIFICATION_TYPE = U
NORAD_CAT_ID   = 39766
ELEMENT_SET_NO = 999
REV_AT_EPOCH   = 62093
BSTAR          = -.68406E-4
MEAN_MOTION_DOT = -.562E-5
MEAN_MOTION_DDOT = 0

CCSDS_OMM_VERS = 2.0
CREATION_DATE  = 
ORIGINATOR     = 

OBJECT_NAME    = YAOGAN-29
OBJECT_ID      = 2015-069A
CENTER_NAME    = EARTH
REF_FRAME      = TEME
TIME_SYSTEM    = UTC
MEAN_ELEMENT_THEORY = SGP/SGP4

EPOCH          = 2025-11-21T23:15:12.154752
MEAN_MOTION    = 14.82849249
ECCENTRICITY   = .0001601
INCLINATION    = 98.0239
RA_OF_ASC_NODE = 349.0720
ARG_OF_PERICENTER = 31.8720
MEAN_ANOMALY   = 328.2590

EPHEMERIS_TYPE = 0
CLASSIFICATION_TYPE = U
NORAD_CAT_ID   = 41038
ELEMENT_SET_NO = 999
REV_AT_EPOCH   = 53991
BSTAR          = .69745E-4
MEAN_MOTION_DOT = .51E-5
MEAN_MOTION_DDOT = 0

CCSDS_OMM_VERS = 2.0
CREATION_DATE  = 
ORIGINATOR     = 

OBJECT_NAME    = ASTRO-H (HITOMI)
OBJECT_ID      = 2016-012A
CENTER_NAME    = EARTH
REF_FRAME      = TEME
TIME_SYSTEM    = UTC
MEAN_ELEMENT_THEORY = SGP/SGP4

EPOCH          = 2025-11-21T06:17:32.250912
MEAN_MOTION    = 15.09162307
ECCENTRICITY   = .000977
INCLINATION    = 31.0013
RA_OF_ASC_NODE = 335.8101
ARG_OF_PERICENTER = 320.7682
MEAN_ANOMALY   = 39.2247

EPHEMERIS_TYPE = 0
CLASSIFICATION_TYPE = U
NORAD_CAT_ID   = 41337
ELEMENT_SET_NO = 999
REV_AT_EPOCH   = 53583
BSTAR          = .21219E-3
MEAN_MOTION_DOT = .3549E-4
MEAN_MOTION_DDOT = 0

CCSDS_OMM_VERS = 2.0
CREATION_DATE  = 
ORIGINATOR     = 

OBJECT_NAME    = HXMT (HUIYAN)
OBJECT_ID      = 2017-034A
CENTER_NAME    = EARTH
REF_FRAME      = TEME
TIME_SYSTEM    = UTC
MEAN_ELEMENT_THEORY = SGP/SGP4

EPOCH          = 2025-11-21T21:44:58.680672
MEAN_MOTION    = 15.15963479
ECCENTRICITY   = .0034138
INCLINATION    = 43.0148
RA_OF_ASC_NODE = 255.2156
ARG_OF_PERICENTER = 273.3758
MEAN_ANOMALY   = 86.3185

EPHEMERIS_TYPE = 0
CLASSIFICATION_TYPE = U
NORAD_CAT_ID   = 42758
ELEMENT_SET_NO = 999
REV_AT_EPOCH   = 46617
BSTAR          = .3837E-3
MEAN_MOTION_DOT = .7373E-4
MEAN_MOTION_DDOT = 0

CCSDS_OMM_VERS = 2.0
CREATION_DATE  = 
ORIGINATOR     = 

OBJECT_NAME    = CZ-2C R/B
OBJECT_ID      = 2018-054D
CENTER_NAME    = EARTH
REF_FRAME      = TEME
TIME_SYSTEM    = UTC
MEAN_ELEMENT_THEORY = SGP/SGP4

EPOCH          = 2025-11-21T01:45:05.200704
MEAN_MOTION    = 15.69281838
ECCENTRICITY   = .0022513
INCLINATION    = 35.1364
RA_OF_ASC_NODE = 327.2752
ARG_OF_PERICENTER = 287.1809
MEAN_ANOMALY   = 72.6458

EPHEMERIS_TYPE = 0
CLASSIFICATION_TYPE = U
NORAD_CAT_ID   = 43521
ELEMENT_SET_NO = 999
REV_AT_EPOCH   = 41164
BSTAR          = .63719E-3
MEAN_MOTION_DOT = .78922E-3
MEAN_MOTION_DDOT = 0

CCSDS_OMM_VERS = 2.0
CREATION_DATE  = 
ORIGINATOR     = 

OBJECT_NAME    = SAOCOM 1A
OBJECT_ID      = 2018-076A
CENTER_NAME    = EARTH
REF_FRAME      = TEME
TIME_SYSTEM    = UTC
MEAN_ELEMENT_THEORY = SGP/SGP4

EPOCH          = 2025-11-21T22:42:26.857152
MEAN_MOTION    = 14.82143905
ECCENTRICITY   = .0001571
INCLINATION    = 97.8852
RA_OF_ASC_NODE = 150.6704
ARG_OF_PERICENTER = 91.3350
MEAN_ANOMALY   = 268.8043

EPHEMERIS_TYPE = 0
CLASSIFICATION_TYPE = U
NORAD_CAT_ID   = 43641
ELEMENT_SET_NO = 999
REV_AT_EPOCH   = 38540
BSTAR          = .71755E-4
MEAN_MOTION_DOT = .519E-5
MEAN_MOTION_DDOT = 0

CCSDS_OMM_VERS = 2.0
CREATION_DATE  = 
ORIGINATOR     = 

OBJECT_NAME    = H-2A R/B
OBJECT_ID      = 2018-084L
CENTER_NAME    = EARTH
REF_FRAME      = TEME
TIME_SYSTEM    = UTC
MEAN_ELEMENT_THEORY = SGP/SGP4

EPOCH          = 2025-11-21T11:12:10.691424
MEAN_MOTION    = 15.36353375
ECCENTRICITY   = .0028871
INCLINATION    = 98.8785
RA_OF_ASC_NODE = 155.1550
ARG_OF_PERICENTER = 38.8508
MEAN_ANOMALY   = 321.4799

EPHEMERIS_TYPE = 0
CLASSIFICATION_TYPE = U
NORAD_CAT_ID   = 43682
ELEMENT_SET_NO = 999
REV_AT_EPOCH   = 38913
BSTAR          = .55049E-3
MEAN_MOTION_DOT = .19708E-3
MEAN_MOTION_DDOT = 0

CCSDS_OMM_VERS = 2.0
CREATION_DATE  = 
ORIGINATOR     = 

OBJECT_NAME    = SAOCOM 1B
OBJECT_ID      = 2020-059A
CENTER_NAME    = EARTH
REF_FRAME      = TEME
TIME_SYSTEM    = UTC
MEAN_ELEMENT_THEORY = SGP/SGP4

EPOCH          = 2025-11-21T21:50:16.554048
MEAN_MOTION    = 14.82152512
ECCENTRICITY   = .0001331
INCLINATION    = 97.8847
RA_OF_ASC_NODE = 149.7363
ARG_OF_PERICENTER = 89.9185
MEAN_ANOMALY   = 270.2181

EPHEMERIS_TYPE = 0
CLASSIFICATION_TYPE = U
NORAD_CAT_ID   = 46265
ELEMENT_SET_NO = 999
REV_AT_EPOCH   = 28278
BSTAR          = .7298E-4
MEAN_MOTION_DOT = .529E-5
MEAN_MOTION_DDOT = 0

CCSDS_OMM_VERS = 2.0
CREATION_DATE  = 
ORIGINATOR     = 

OBJECT_NAME    = CSS (TIANHE)
OBJECT_ID      = 2021-035A
CENTER_NAME    = EARTH
REF_FRAME      = TEME
TIME_SYSTEM    = UTC
MEAN_ELEMENT_THEORY = SGP/SGP4

EPOCH          = 2025-11-21T19:50:28.195008
MEAN_MOTION    = 15.59409922
ECCENTRICITY   = .0007674
INCLINATION    = 41.4654
RA_OF_ASC_NODE = 143.5767
ARG_OF_PERICENTER = 213.1199
MEAN_ANOMALY   = 146.9160

EPHEMERIS_TYPE = 0
CLASSIFICATION_TYPE = U
NORAD_CAT_ID   = 48274
ELEMENT_SET_NO = 999
REV_AT_EPOCH   = 26076
BSTAR          = .25818E-3
MEAN_MOTION_DOT = .2074E-3
MEAN_MOTION_DDOT = 0

CCSDS_OMM_VERS = 2.0
CREATION_DATE  = 
ORIGINATOR     = 

OBJECT_NAME    = COSMOS 2550
OBJECT_ID      = 2021-056A
CENTER_NAME    = EARTH
REF_FRAME      = TEME
TIME_SYSTEM    = UTC
MEAN_ELEMENT_THEORY = SGP/SGP4

EPOCH          = 2025-11-21T22:11:39.765120
MEAN_MOTION    = 15.33863032
ECCENTRICITY   = .0007975
INCLINATION    = 67.1437
RA_OF_ASC_NODE = 6.8952
ARG_OF_PERICENTER = 266.2089
MEAN_ANOMALY   = 93.8154

EPHEMERIS_TYPE = 0
CLASSIFICATION_TYPE = U
NORAD_CAT_ID   = 48865
ELEMENT_SET_NO = 999
REV_AT_EPOCH   = 24693
BSTAR          = .63955E-5
MEAN_MOTION_DOT = .19E-6
MEAN_MOTION_DDOT = 0

